{"type": "FeatureCollection", "features": [ {"type": "Feature", "properties": {"norad_id": 43010, "name": "FENGYUN 3D", "group": "weather", "lat": -50.52408963713784, "lon": 131.31205534064637, "alt_km": 833.0441186899097, "timestamp": "2025-12-21T22:41:41.091016+00:00", "meta": {"OBJECT_NAME": "FENGYUN 3D", "OBJECT_ID": "2017-072A", "EPOCH": "2025-12-21T14:50:33.767232", "MEAN_MOTION": 14.19686041, "ECCENTRICITY": 0.00013953, "INCLINATION": 98.9899, "RA_OF_ASC_NODE": 322.0614, "ARG_OF_PERICENTER": 155.7059, "MEAN_ANOMALY": 204.4183, "EPHEMERIS_TYPE": 0, "CLASSIFICATION_TYPE": "U", "NORAD_CAT_ID": 43010, "ELEMENT_SET_NO": 999, "REV_AT_EPOCH": 41979, "BSTAR": 5.9434011e-05, "MEAN_MOTION_DOT": 8e-07, "MEAN_MOTION_DDOT": 0}, "tle": {"line1": "1 43010U 17072A   25355.61844638  .00000080  00000+0  59434-4 0  9991", "line2": "2 43010  98.9899 322.0614 0001395 155.7059 204.4183 14.19686041419792"}}, "geometry": {"type": "Point", "coordinates": [131.31205534064637, -50.52408963713784]}}, {"type": "Feature", "properties": {"norad_id": 43013, "name": "NOAA 20 (JPSS-1)", "group": "weather", "lat": 17.868230456259187, "lon": -70.70756939791843, "alt_km": 826.4098318739225, "timestamp": "2025-12-21T22:41:41.091026+00:00", "meta": {"OBJECT_NAME": "NOAA 20 (JPSS-1)", "OBJECT_ID": "2017-073A", "EPOCH": "2025-12-21T14:09:05.565600", "MEAN_MOTION": 14.1952789, "ECCENTRICITY": 0.00021221, "INCLINATION": 98.7612, "RA_OF_ASC_NODE": 291.79, "ARG_OF_PERICENTER": 74.5845, "MEAN_ANOMALY": 285.5565, "EPHEMERIS_TYPE": 0, "CLASSIFICATION_TYPE": "U", "NORAD_CAT_ID": 43013, "ELEMENT_SET_NO": 999, "REV_AT_EPOCH": 41927, "BSTAR": 5.3527727e-05, "MEAN_MOTION_DOT": 6.9e-07, "MEAN_MOTION_DDOT": 0}, "tle": {"line1": "1 43013U 17073A   25355.58964775  .00000069  00000+0  53528-4 0  9991", "line2": "2 43013  98.7612 291.7900 0002122  74.5845 285.5565 14.19527890419279"}}, "geometry": {"type": "Point", "coordinates": [-70.70756939791843, 17.868230456259187]}}, {"type": "Feature", "properties": {"norad_id": 43226, "name": "GOES 17", "group": "weather", "lat": -0.46730029135034024, "lon": -18.308640886523865, "alt_km": 35780.158181207174, "timestamp": "2025-12-21T22:41:41.091039+00:00", "meta": {"OBJECT_NAME": "GOES 17", "OBJECT_ID": "2018-022A", "EPOCH": "2025-12-21T11:03:34.162848", "MEAN_MOTION": 1.0027043, "ECCENTRICITY": 0.0003109, "INCLINATION": 0.4788, "RA_OF_ASC_NODE": 89.1269, "ARG_OF_PERICENTER": 191.6701, "MEAN_ANOMALY": 245.8663, "EPHEMERIS_TYPE": 0, "CLASSIFICATION_TYPE": "U", "NORAD_CAT_ID": 43226, "ELEMENT_SET_NO": 999, "REV_AT_EPOCH": 2864, "BSTAR": 0, "MEAN_MOTION_DOT": -1.6e-06, "MEAN_MOTION_DDOT": 0}, "tle": {"line1": "1 43226U 18022A   25355.46081207 -.00000160  00000+0  00000+0 0  9994", "line2": "2 43226   0.4788  89.1269 0003109 191.6701 245.8663  1.00270430 28640"}}, "geometry": {"type": "Point", "coordinates": [-18.308640886523865, -0.46730029135034024]}}, {"type": "Feature", "properties": {"norad_id": 43491, "name": "FENGYUN 2H", "group": "weather", "lat": 2.422600571759069, "lon": 150.47702310847137, "alt_km": 35787.16566075067, "timestamp": "2025-12-21T22:41:41.091052+00:00", "meta": {"OBJECT_NAME": "FENGYUN 2H", "OBJECT_ID": "2018-050A", "EPOCH": "2025-12-21T13:34:30.584064", "MEAN_MOTION": 1.0027113, "ECCENTRICITY": 0.00023695, "INCLINATION": 2.5724, "RA_OF_ASC_NODE": 81.2369, "ARG_OF_PERICENTER": 165.9334, "MEAN_ANOMALY": 126.1899, "EPHEMERIS_TYPE": 0, "CLASSIFICATION_TYPE": "U", "NORAD_CAT_ID": 43491, "ELEMENT_SET_NO": 999, "REV_AT_EPOCH": 2765, "BSTAR": 0, "MEAN_MOTION_DOT": -1.09e-06, "MEAN_MOTION_DDOT": 0}, "tle": {"line1": "1 43491U 18050A   25355.56563176 -.00000109  00000+0  00000+0 0  9993", "line2": "2 43491   2.5724  81.2369 0002369 165.9334 126.1899  1.00271130 27654"}}, "geometry": {"type": "Point", "coordinates": [150.47702310847137, 2.422600571759069]}}, {"type": "Feature", "properties": {"norad_id": 43689, "name": "METOP-C", "group": "weather", "lat": -43.46865243095388, "lon": -134.76390493804547, "alt_km": 827.4944475457578, "timestamp": "2025-12-21T22:41:41.091063+00:00", "meta": {"OBJECT_NAME": "METOP-C", "OBJECT_ID": "2018-087A", "EPOCH": "2025-12-21T14:53:12.479712", "MEAN_MOTION": 14.21487599, "ECCENTRICITY": 8.198e-05, "INCLINATION": 98.6916, "RA_OF_ASC_NODE": 53.2533, "ARG_OF_PERICENTER": 23.3949, "MEAN_ANOMALY": 336.7265, "EPHEMERIS_TYPE": 0, "CLASSIFICATION_TYPE": "U", "NORAD_CAT_ID": 43689, "ELEMENT_SET_NO": 999, "REV_AT_EPOCH": 36960, "BSTAR": 7.5060282e-05, "MEAN_MOTION_DOT": 1.21e-06, "MEAN_MOTION_DDOT": 0}, "tle": {"line1": "1 43689U 18087A   25355.62028333  .00000121  00000+0  75060-4 0  9996", "line2": "2 43689  98.6916  53.2533 0000819  23.3949 336.7265 14.21487599369606"}}, "geometry": {"type": "Point", "coordinates": [-134.76390493804547, -43.46865243095388]}}, {"type": "Feature", "properties": {"norad_id": 43823, "name": "GEO-KOMPSAT-2A", "group": "weather", "lat": 0.03191203207033911, "lon": -160.55676620541212, "alt_km": 35786.673633054335, "timestamp": "2025-12-21T22:41:41.091074+00:00", "meta": {"OBJECT_NAME": "GEO-KOMPSAT-2A", "OBJECT_ID": "2018-100A", "EPOCH": "2025-12-21T13:48:29.244672", "MEAN_MOTION": 1.00270663, "ECCENTRICITY": 4.028e-05, "INCLINATION": 0.0516, "RA_OF_ASC_NODE": 132.7264, "ARG_OF_PERICENTER": 329.2172, "MEAN_ANOMALY": 323.8401, "EPHEMERIS_TYPE": 0, "CLASSIFICATION_TYPE": "U", "NORAD_CAT_ID": 43823, "ELEMENT_SET_NO": 999, "REV_AT_EPOCH": 2584, "BSTAR": 0, "MEAN_MOTION_DOT": -3.21e-06, "MEAN_MOTION_DDOT": 0}, "tle": {"line1": "1 43823U 18100A   25355.57533848 -.00000321  00000+0  00000+0 0  9998", "line2": "2 43823   0.0516 132.7264 0000402 329.2172 323.8401  1.00270663 25846"}}, "geometry": {"type": "Point", "coordinates": [-160.55676620541212, 0.03191203207033911]}}, {"type": "Feature", "properties": {"norad_id": 44387, "name": "METEOR-M2 2", "group": "weather", "lat": 30.641793694792366, "lon": -29.53749626444882, "alt_km": 809.3385653940395, "timestamp": "2025-12-21T22:41:41.091093+00:00", "meta": {"OBJECT_NAME": "METEOR-M2 2", "OBJECT_ID": "2019-038A", "EPOCH": "2025-12-21T14:07:09.897600", "MEAN_MOTION": 14.24294306, "ECCENTRICITY": 0.00016545, "INCLINATION": 98.8973, "RA_OF_ASC_NODE": 335.4253, "ARG_OF_PERICENTER": 130.1734, "MEAN_ANOMALY": 229.9589, "EPHEMERIS_TYPE": 0, "CLASSIFICATION_TYPE": "U", "NORAD_CAT_ID": 44387, "ELEMENT_SET_NO": 999, "REV_AT_EPOCH": 33601, "BSTAR": 4.462195e-06, "MEAN_MOTION_DOT": -3.5e-07, "MEAN_MOTION_DDOT": 0}, "tle": {"line1": "1 44387U 19038A   25355.58830900 -.00000035  00000+0  44622-5 0  9991", "line2": "2 44387  98.8973 335.4253 0001654 130.1734 229.9589 14.24294306336014"}}, "geometry": {"type": "Point", "coordinates": [-29.53749626444882, 30.641793694792366]}}, {"type": "Feature", "properties": {"norad_id": 47719, "name": "ARKTIKA-M 1", "group": "weather", "lat": 44.804216759706584, "lon": -127.32927368795148, "alt_km": 22783.887528796597, "timestamp": "2025-12-21T22:41:41.091109+00:00", "meta": {"OBJECT_NAME": "ARKTIKA-M 1", "OBJECT_ID": "2021-016A", "EPOCH": "2025-12-21T01:10:59.170944", "MEAN_MOTION": 2.00630317, "ECCENTRICITY": 0.7208476, "INCLINATION": 63.1763, "RA_OF_ASC_NODE": 82.8606, "ARG_OF_PERICENTER": 269.1559, "MEAN_ANOMALY": 15.5506, "EPHEMERIS_TYPE": 0, "CLASSIFICATION_TYPE": "U", "NORAD_CAT_ID": 47719, "ELEMENT_SET_NO": 999, "REV_AT_EPOCH": 3521, "BSTAR": 0, "MEAN_MOTION_DOT": -1e-06, "MEAN_MOTION_DDOT": 0}, "tle": {"line1": "1 47719U 21016A   25355.04929596 -.00000100  00000+0  00000+0 0  9992", "line2": "2 47719  63.1763  82.8606 7208476 269.1559  15.5506  2.00630317 35212"}}, "geometry": {"type": "Point", "coordinates": [-127.32927368795148, 44.804216759706584]}}, {"type": "Feature", "properties": {"norad_id": 49008, "name": "FENGYUN 3E", "group": "weather", "lat": -24.092365320691165, "lon": 172.4097966850317, "alt_km": 830.6338854795767, "timestamp": "2025-12-21T22:41:41.091122+00:00", "meta": {"OBJECT_NAME": "FENGYUN 3E", "OBJECT_ID": "2021-062A", "EPOCH": "2025-12-21T14:58:14.357856", "MEAN_MOTION": 14.19881839, "ECCENTRICITY": 8.013e-05, "INCLINATION": 98.7469, "RA_OF_ASC_NODE": 356.0394, "ARG_OF_PERICENTER": 204.712, "MEAN_ANOMALY": 155.4018, "EPHEMERIS_TYPE": 0, "CLASSIFICATION_TYPE": "U", "NORAD_CAT_ID": 49008, "ELEMENT_SET_NO": 999, "REV_AT_EPOCH": 23138, "BSTAR": 0.00011605885, "MEAN_MOTION_DOT": 2.02e-06, "MEAN_MOTION_DDOT": 0}, "tle": {"line1": "1 49008U 21062A   25355.62377729  .00000202  00000+0  11606-3 0  9995", "line2": "2 49008  98.7469 356.0394 0000801 204.7120 155.4018 14.19881839231384"}}, "geometry": {"type": "Point", "coordinates": [172.4097966850317, -24.092365320691165]}}, {"type": "Feature", "properties": {"norad_id": 51850, "name": "GOES 18", "group": "weather", "lat": 0.005535404609414291, "lon": -65.82419043264336, "alt_km": 35785.132437964516, "timestamp": "2025-12-21T22:41:41.091133+00:00", "meta": {"OBJECT_NAME": "GOES 18", "OBJECT_ID": "2022-021A", "EPOCH": "2025-12-21T12:32:43.999872", "MEAN_MOTION": 1.00270998, "ECCENTRICITY": 3.019e-05, "INCLINATION": 0.0198, "RA_OF_ASC_NODE": 170.4452, "ARG_OF_PERICENTER": 151.1151, "MEAN_ANOMALY": 179.9713, "EPHEMERIS_TYPE": 0, "CLASSIFICATION_TYPE": "U", "NORAD_CAT_ID": 51850, "ELEMENT_SET_NO": 999, "REV_AT_EPOCH": 481, "BSTAR": 0, "MEAN_MOTION_DOT": 1.19e-06, "MEAN_MOTION_DDOT": 0}, "tle": {"line1": "1 51850U 22021A   25355.52273148  .00000119  00000+0  00000+0 0  9997", "line2": "2 51850   0.0198 170.4452 0000301 151.1151 179.9713  1.00270998  4817"}}, "geometry": {"type": "Point", "coordinates": [-65.82419043264336, 0.005535404609414291]}}]}